{
"type": "FeatureCollection",
"name": "Library",
"crs": { "type": "name", "properties": { "name": "urn:ogc:def:crs:OGC:1.3:CRS84" } },
"features": [
{ "type": "Feature", "properties": { "full_id": "n1148495533", "osm_id": "1148495533", "osm_type": "node", "amenity": "library", "description": null, "wheelchair": null, "entrance": null, "check_date": null, "access": null, "operator:type": null, "internet_access": null, "designation": null, "name:en": null, "phone": null, "operator": null, "addr:postcode": null, "addr:housenumber": null, "addr:street": null, "addr:city": null, "wikipedia": "en:Burning of Jaffna library", "wikidata": "Q3535947", "website": "http://www.jaffnalibrary.lk/", "opening_hours": "Tu-Su 09:00-19:00", "name:ta": "பொதுசன நூலகம் யாழ்ப்பணம்", "name:fr": "Bibliothèque publique de Jaffna", "name": "Jaffna Public Library" }, "geometry": { "type": "Point", "coordinates": [ 80.0118084, 9.6621715 ] } },
{ "type": "Feature", "properties": { "full_id": "n1275867723", "osm_id": "1275867723", "osm_type": "node", "amenity": "library", "description": null, "wheelchair": null, "entrance": null, "check_date": null, "access": null, "operator:type": null, "internet_access": null, "designation": null, "name:en": null, "phone": null, "operator": null, "addr:postcode": null, "addr:housenumber": null, "addr:street": null, "addr:city": null, "wikipedia": null, "wikidata": null, "website": null, "opening_hours": null, "name:ta": null, "name:fr": null, "name": "Katubedda" }, "geometry": { "type": "Point", "coordinates": [ 79.8889357, 6.7966272 ] } },
{ "type": "Feature", "properties": { "full_id": "n1474840670", "osm_id": "1474840670", "osm_type": "node", "amenity": "library", "description": null, "wheelchair": null, "entrance": null, "check_date": null, "access": null, "operator:type": null, "internet_access": null, "designation": null, "name:en": null, "phone": null, "operator": null, "addr:postcode": null, "addr:housenumber": null, "addr:street": null, "addr:city": null, "wikipedia": null, "wikidata": null, "website": null, "opening_hours": null, "name:ta": null, "name:fr": null, "name": "Koswatta Library" }, "geometry": { "type": "Point", "coordinates": [ 79.897968, 7.3725378 ] } },
{ "type": "Feature", "properties": { "full_id": "n1477451192", "osm_id": "1477451192", "osm_type": "node", "amenity": "library", "description": null, "wheelchair": null, "entrance": null, "check_date": null, "access": null, "operator:type": null, "internet_access": null, "designation": null, "name:en": null, "phone": null, "operator": null, "addr:postcode": null, "addr:housenumber": null, "addr:street": null, "addr:city": null, "wikipedia": null, "wikidata": null, "website": null, "opening_hours": null, "name:ta": null, "name:fr": null, "name": null }, "geometry": { "type": "Point", "coordinates": [ 79.8850532, 7.3537502 ] } },
{ "type": "Feature", "properties": { "full_id": "n1652422617", "osm_id": "1652422617", "osm_type": "node", "amenity": "library", "description": null, "wheelchair": null, "entrance": null, "check_date": null, "access": null, "operator:type": null, "internet_access": null, "designation": null, "name:en": null, "phone": null, "operator": null, "addr:postcode": null, "addr:housenumber": null, "addr:street": null, "addr:city": "Maharagama", "wikipedia": null, "wikidata": null, "website": null, "opening_hours": null, "name:ta": null, "name:fr": null, "name": "Public Library" }, "geometry": { "type": "Point", "coordinates": [ 79.9271124, 6.8463082 ] } },
{ "type": "Feature", "properties": { "full_id": "n1730333289", "osm_id": "1730333289", "osm_type": "node", "amenity": "library", "description": null, "wheelchair": null, "entrance": null, "check_date": null, "access": null, "operator:type": null, "internet_access": null, "designation": null, "name:en": null, "phone": null, "operator": null, "addr:postcode": null, "addr:housenumber": null, "addr:street": null, "addr:city": null, "wikipedia": null, "wikidata": null, "website": null, "opening_hours": null, "name:ta": null, "name:fr": null, "name": "Sinthupuram Gandigi Library" }, "geometry": { "type": "Point", "coordinates": [ 79.9529035, 9.7468945 ] } },
{ "type": "Feature", "properties": { "full_id": "n1733767793", "osm_id": "1733767793", "osm_type": "node", "amenity": "library", "description": null, "wheelchair": null, "entrance": null, "check_date": null, "access": null, "operator:type": null, "internet_access": null, "designation": null, "name:en": null, "phone": null, "operator": null, "addr:postcode": null, "addr:housenumber": null, "addr:street": null, "addr:city": null, "wikipedia": null, "wikidata": null, "website": null, "opening_hours": null, "name:ta": null, "name:fr": null, "name": "Public Library" }, "geometry": { "type": "Point", "coordinates": [ 80.1956551, 7.2236004 ] } },
{ "type": "Feature", "properties": { "full_id": "n1744470928", "osm_id": "1744470928", "osm_type": "node", "amenity": "library", "description": null, "wheelchair": null, "entrance": null, "check_date": null, "access": null, "operator:type": null, "internet_access": null, "designation": null, "name:en": null, "phone": null, "operator": null, "addr:postcode": null, "addr:housenumber": null, "addr:street": null, "addr:city": "Thissamaharama", "wikipedia": null, "wikidata": null, "website": null, "opening_hours": null, "name:ta": null, "name:fr": null, "name": "Public Library" }, "geometry": { "type": "Point", "coordinates": [ 81.286401, 6.2758008 ] } },
{ "type": "Feature", "properties": { "full_id": "n1796683766", "osm_id": "1796683766", "osm_type": "node", "amenity": "library", "description": null, "wheelchair": null, "entrance": null, "check_date": null, "access": null, "operator:type": null, "internet_access": null, "designation": null, "name:en": null, "phone": null, "operator": null, "addr:postcode": null, "addr:housenumber": null, "addr:street": null, "addr:city": null, "wikipedia": null, "wikidata": null, "website": null, "opening_hours": null, "name:ta": null, "name:fr": null, "name": "Public Library" }, "geometry": { "type": "Point", "coordinates": [ 79.9913245, 6.7132315 ] } },
{ "type": "Feature", "properties": { "full_id": "n1814595087", "osm_id": "1814595087", "osm_type": "node", "amenity": "library", "description": null, "wheelchair": null, "entrance": null, "check_date": null, "access": null, "operator:type": null, "internet_access": null, "designation": null, "name:en": null, "phone": null, "operator": null, "addr:postcode": null, "addr:housenumber": null, "addr:street": null, "addr:city": null, "wikipedia": null, "wikidata": null, "website": null, "opening_hours": null, "name:ta": null, "name:fr": null, "name": "Publi Library" }, "geometry": { "type": "Point", "coordinates": [ 81.1261617, 6.1279581 ] } },
{ "type": "Feature", "properties": { "full_id": "n1815548681", "osm_id": "1815548681", "osm_type": "node", "amenity": "library", "description": null, "wheelchair": null, "entrance": null, "check_date": null, "access": null, "operator:type": null, "internet_access": null, "designation": null, "name:en": null, "phone": null, "operator": null, "addr:postcode": null, "addr:housenumber": null, "addr:street": null, "addr:city": null, "wikipedia": null, "wikidata": null, "website": null, "opening_hours": null, "name:ta": null, "name:fr": null, "name": "Sirimavo Bandaranayake Public Library" }, "geometry": { "type": "Point", "coordinates": [ 79.9287135, 6.9247057 ] } },
{ "type": "Feature", "properties": { "full_id": "n1830490093", "osm_id": "1830490093", "osm_type": "node", "amenity": "library", "description": null, "wheelchair": null, "entrance": null, "check_date": null, "access": null, "operator:type": null, "internet_access": null, "designation": null, "name:en": null, "phone": null, "operator": null, "addr:postcode": null, "addr:housenumber": null, "addr:street": "Court Road", "addr:city": "Gampola", "wikipedia": null, "wikidata": null, "website": null, "opening_hours": null, "name:ta": null, "name:fr": null, "name": "Public Library" }, "geometry": { "type": "Point", "coordinates": [ 80.5705341, 7.1625202 ] } },
{ "type": "Feature", "properties": { "full_id": "n1843491220", "osm_id": "1843491220", "osm_type": "node", "amenity": "library", "description": null, "wheelchair": null, "entrance": null, "check_date": null, "access": null, "operator:type": null, "internet_access": null, "designation": null, "name:en": null, "phone": null, "operator": null, "addr:postcode": null, "addr:housenumber": null, "addr:street": null, "addr:city": "Hanwella", "wikipedia": null, "wikidata": null, "website": null, "opening_hours": null, "name:ta": null, "name:fr": null, "name": "Public Library" }, "geometry": { "type": "Point", "coordinates": [ 80.0831393, 6.9093277 ] } },
{ "type": "Feature", "properties": { "full_id": "n1846324363", "osm_id": "1846324363", "osm_type": "node", "amenity": "library", "description": null, "wheelchair": null, "entrance": null, "check_date": null, "access": null, "operator:type": null, "internet_access": null, "designation": null, "name:en": null, "phone": null, "operator": null, "addr:postcode": null, "addr:housenumber": null, "addr:street": null, "addr:city": null, "wikipedia": null, "wikidata": null, "website": null, "opening_hours": null, "name:ta": null, "name:fr": null, "name": null }, "geometry": { "type": "Point", "coordinates": [ 80.602165, 5.9639523 ] } },
{ "type": "Feature", "properties": { "full_id": "n1848166440", "osm_id": "1848166440", "osm_type": "node", "amenity": "library", "description": null, "wheelchair": null, "entrance": null, "check_date": null, "access": null, "operator:type": null, "internet_access": null, "designation": null, "name:en": null, "phone": null, "operator": null, "addr:postcode": null, "addr:housenumber": null, "addr:street": null, "addr:city": "Nattandiya", "wikipedia": null, "wikidata": null, "website": null, "opening_hours": null, "name:ta": null, "name:fr": null, "name": "Public Library" }, "geometry": { "type": "Point", "coordinates": [ 79.8623638, 7.410124 ] } },
{ "type": "Feature", "properties": { "full_id": "n1879028078", "osm_id": "1879028078", "osm_type": "node", "amenity": "library", "description": null, "wheelchair": null, "entrance": null, "check_date": null, "access": null, "operator:type": null, "internet_access": null, "designation": null, "name:en": null, "phone": null, "operator": null, "addr:postcode": null, "addr:housenumber": null, "addr:street": null, "addr:city": null, "wikipedia": null, "wikidata": null, "website": null, "opening_hours": null, "name:ta": null, "name:fr": null, "name": "Ameer Ali Public Library" }, "geometry": { "type": "Point", "coordinates": [ 81.8094545, 7.3708635 ] } },
{ "type": "Feature", "properties": { "full_id": "n1897766703", "osm_id": "1897766703", "osm_type": "node", "amenity": "library", "description": null, "wheelchair": null, "entrance": null, "check_date": null, "access": null, "operator:type": null, "internet_access": null, "designation": null, "name:en": null, "phone": null, "operator": null, "addr:postcode": null, "addr:housenumber": null, "addr:street": null, "addr:city": null, "wikipedia": null, "wikidata": null, "website": null, "opening_hours": null, "name:ta": null, "name:fr": null, "name": "Public" }, "geometry": { "type": "Point", "coordinates": [ 79.8913746, 7.0778544 ] } },
{ "type": "Feature", "properties": { "full_id": "n1932028866", "osm_id": "1932028866", "osm_type": "node", "amenity": "library", "description": null, "wheelchair": null, "entrance": null, "check_date": null, "access": null, "operator:type": null, "internet_access": null, "designation": null, "name:en": null, "phone": null, "operator": null, "addr:postcode": null, "addr:housenumber": null, "addr:street": null, "addr:city": null, "wikipedia": null, "wikidata": null, "website": null, "opening_hours": null, "name:ta": null, "name:fr": null, "name": "Walasmulla" }, "geometry": { "type": "Point", "coordinates": [ 80.6971501, 6.1530125 ] } },
{ "type": "Feature", "properties": { "full_id": "n2142186421", "osm_id": "2142186421", "osm_type": "node", "amenity": "library", "description": null, "wheelchair": null, "entrance": null, "check_date": null, "access": null, "operator:type": null, "internet_access": null, "designation": null, "name:en": null, "phone": null, "operator": null, "addr:postcode": null, "addr:housenumber": null, "addr:street": null, "addr:city": "Kolonnawa", "wikipedia": null, "wikidata": null, "website": null, "opening_hours": null, "name:ta": null, "name:fr": null, "name": "Public Library" }, "geometry": { "type": "Point", "coordinates": [ 79.8919246, 6.9328874 ] } },
{ "type": "Feature", "properties": { "full_id": "n2142206342", "osm_id": "2142206342", "osm_type": "node", "amenity": "library", "description": null, "wheelchair": null, "entrance": null, "check_date": null, "access": null, "operator:type": null, "internet_access": null, "designation": null, "name:en": null, "phone": null, "operator": null, "addr:postcode": null, "addr:housenumber": null, "addr:street": null, "addr:city": null, "wikipedia": null, "wikidata": null, "website": null, "opening_hours": null, "name:ta": null, "name:fr": null, "name": "Children Library" }, "geometry": { "type": "Point", "coordinates": [ 79.8467427, 7.2098592 ] } },
{ "type": "Feature", "properties": { "full_id": "n2151471653", "osm_id": "2151471653", "osm_type": "node", "amenity": "library", "description": null, "wheelchair": null, "entrance": null, "check_date": null, "access": null, "operator:type": null, "internet_access": null, "designation": null, "name:en": null, "phone": null, "operator": null, "addr:postcode": null, "addr:housenumber": null, "addr:street": "Frank Hettiarachchi Street", "addr:city": "Ratnapura", "wikipedia": null, "wikidata": null, "website": null, "opening_hours": null, "name:ta": null, "name:fr": null, "name": "Public Library" }, "geometry": { "type": "Point", "coordinates": [ 80.4023484, 6.6799729 ] } },
{ "type": "Feature", "properties": { "full_id": "n2152832343", "osm_id": "2152832343", "osm_type": "node", "amenity": "library", "description": null, "wheelchair": null, "entrance": null, "check_date": null, "access": null, "operator:type": null, "internet_access": null, "designation": null, "name:en": null, "phone": null, "operator": null, "addr:postcode": null, "addr:housenumber": null, "addr:street": null, "addr:city": null, "wikipedia": null, "wikidata": null, "website": null, "opening_hours": null, "name:ta": null, "name:fr": null, "name": "Killinochchi" }, "geometry": { "type": "Point", "coordinates": [ 80.408703, 9.3931632 ] } },
{ "type": "Feature", "properties": { "full_id": "n2212555603", "osm_id": "2212555603", "osm_type": "node", "amenity": "library", "description": null, "wheelchair": null, "entrance": null, "check_date": null, "access": null, "operator:type": null, "internet_access": null, "designation": null, "name:en": null, "phone": null, "operator": null, "addr:postcode": null, "addr:housenumber": null, "addr:street": null, "addr:city": null, "wikipedia": null, "wikidata": null, "website": null, "opening_hours": null, "name:ta": null, "name:fr": null, "name": "Kandana" }, "geometry": { "type": "Point", "coordinates": [ 79.8959049, 7.0484143 ] } },
{ "type": "Feature", "properties": { "full_id": "n2285461042", "osm_id": "2285461042", "osm_type": "node", "amenity": "library", "description": null, "wheelchair": null, "entrance": null, "check_date": null, "access": null, "operator:type": null, "internet_access": null, "designation": null, "name:en": null, "phone": null, "operator": null, "addr:postcode": null, "addr:housenumber": null, "addr:street": null, "addr:city": null, "wikipedia": null, "wikidata": null, "website": null, "opening_hours": null, "name:ta": null, "name:fr": null, "name": "Hingurakgoda" }, "geometry": { "type": "Point", "coordinates": [ 80.9514882, 8.0419606 ] } },
{ "type": "Feature", "properties": { "full_id": "n2323963213", "osm_id": "2323963213", "osm_type": "node", "amenity": "library", "description": null, "wheelchair": null, "entrance": null, "check_date": null, "access": null, "operator:type": null, "internet_access": null, "designation": null, "name:en": null, "phone": null, "operator": null, "addr:postcode": null, "addr:housenumber": null, "addr:street": null, "addr:city": null, "wikipedia": null, "wikidata": null, "website": null, "opening_hours": null, "name:ta": null, "name:fr": null, "name": "Alawwa Public Library" }, "geometry": { "type": "Point", "coordinates": [ 80.2307084, 7.2983269 ] } },
{ "type": "Feature", "properties": { "full_id": "n2343115506", "osm_id": "2343115506", "osm_type": "node", "amenity": "library", "description": null, "wheelchair": null, "entrance": null, "check_date": null, "access": null, "operator:type": null, "internet_access": null, "designation": null, "name:en": null, "phone": null, "operator": null, "addr:postcode": null, "addr:housenumber": null, "addr:street": null, "addr:city": null, "wikipedia": null, "wikidata": null, "website": null, "opening_hours": null, "name:ta": null, "name:fr": null, "name": "Pilawala Public Library" }, "geometry": { "type": "Point", "coordinates": [ 80.6696803, 7.3062469 ] } },
{ "type": "Feature", "properties": { "full_id": "n2376285697", "osm_id": "2376285697", "osm_type": "node", "amenity": "library", "description": null, "wheelchair": null, "entrance": null, "check_date": null, "access": null, "operator:type": null, "internet_access": null, "designation": null, "name:en": null, "phone": "+94112698847", "operator": "National Library and Documentation Services Board", "addr:postcode": "00700", "addr:housenumber": "14", "addr:street": "Independance Avenue", "addr:city": "Colombo 07", "wikipedia": "en:National Library and Documentation Services Board", "wikidata": "Q6974130", "website": "http://www.natlib.lk", "opening_hours": null, "name:ta": null, "name:fr": null, "name": "National Library and Documentation Services Board" }, "geometry": { "type": "Point", "coordinates": [ 79.865709, 6.9059792 ] } },
{ "type": "Feature", "properties": { "full_id": "n2418592023", "osm_id": "2418592023", "osm_type": "node", "amenity": "library", "description": null, "wheelchair": null, "entrance": null, "check_date": null, "access": null, "operator:type": null, "internet_access": null, "designation": null, "name:en": null, "phone": null, "operator": null, "addr:postcode": null, "addr:housenumber": null, "addr:street": null, "addr:city": null, "wikipedia": null, "wikidata": null, "website": null, "opening_hours": null, "name:ta": null, "name:fr": null, "name": "Vavuniya Public Library" }, "geometry": { "type": "Point", "coordinates": [ 80.4973983, 8.7586453 ] } },
{ "type": "Feature", "properties": { "full_id": "n2419655364", "osm_id": "2419655364", "osm_type": "node", "amenity": "library", "description": null, "wheelchair": null, "entrance": null, "check_date": null, "access": null, "operator:type": null, "internet_access": null, "designation": null, "name:en": "Colombo Tamil Association", "phone": null, "operator": null, "addr:postcode": null, "addr:housenumber": null, "addr:street": "Rudra Mawatha", "addr:city": null, "wikipedia": null, "wikidata": null, "website": null, "opening_hours": "Mo-Su 08:00-18:00", "name:ta": null, "name:fr": null, "name": "THAMIL SANGAM" }, "geometry": { "type": "Point", "coordinates": [ 79.8657635, 6.87271 ] } },
{ "type": "Feature", "properties": { "full_id": "n2529433406", "osm_id": "2529433406", "osm_type": "node", "amenity": "library", "description": null, "wheelchair": null, "entrance": null, "check_date": null, "access": null, "operator:type": null, "internet_access": null, "designation": null, "name:en": null, "phone": null, "operator": null, "addr:postcode": null, "addr:housenumber": null, "addr:street": null, "addr:city": null, "wikipedia": null, "wikidata": null, "website": null, "opening_hours": null, "name:ta": null, "name:fr": null, "name": "Bandarawela Main Libraray" }, "geometry": { "type": "Point", "coordinates": [ 80.9868175, 6.8326212 ] } },
{ "type": "Feature", "properties": { "full_id": "n2558073100", "osm_id": "2558073100", "osm_type": "node", "amenity": "library", "description": null, "wheelchair": null, "entrance": null, "check_date": null, "access": null, "operator:type": null, "internet_access": null, "designation": null, "name:en": null, "phone": null, "operator": null, "addr:postcode": null, "addr:housenumber": null, "addr:street": null, "addr:city": null, "wikipedia": null, "wikidata": null, "website": null, "opening_hours": null, "name:ta": null, "name:fr": null, "name": "Boyawalana Public Library" }, "geometry": { "type": "Point", "coordinates": [ 80.1773596, 7.334691 ] } },
{ "type": "Feature", "properties": { "full_id": "n2678507344", "osm_id": "2678507344", "osm_type": "node", "amenity": "library", "description": null, "wheelchair": null, "entrance": null, "check_date": null, "access": null, "operator:type": null, "internet_access": null, "designation": null, "name:en": null, "phone": null, "operator": null, "addr:postcode": null, "addr:housenumber": null, "addr:street": null, "addr:city": null, "wikipedia": null, "wikidata": null, "website": null, "opening_hours": null, "name:ta": null, "name:fr": null, "name": "Ahungalla" }, "geometry": { "type": "Point", "coordinates": [ 80.0379507, 6.3146729 ] } },
{ "type": "Feature", "properties": { "full_id": "n2683039423", "osm_id": "2683039423", "osm_type": "node", "amenity": "library", "description": null, "wheelchair": null, "entrance": null, "check_date": null, "access": null, "operator:type": null, "internet_access": null, "designation": null, "name:en": null, "phone": null, "operator": null, "addr:postcode": null, "addr:housenumber": null, "addr:street": null, "addr:city": null, "wikipedia": null, "wikidata": null, "website": null, "opening_hours": null, "name:ta": null, "name:fr": null, "name": "Balapitiya" }, "geometry": { "type": "Point", "coordinates": [ 80.039998, 6.2799896 ] } },
{ "type": "Feature", "properties": { "full_id": "n2760582927", "osm_id": "2760582927", "osm_type": "node", "amenity": "library", "description": null, "wheelchair": null, "entrance": null, "check_date": null, "access": null, "operator:type": null, "internet_access": null, "designation": null, "name:en": null, "phone": null, "operator": null, "addr:postcode": null, "addr:housenumber": null, "addr:street": null, "addr:city": "Kotikawatte", "wikipedia": null, "wikidata": null, "website": null, "opening_hours": null, "name:ta": null, "name:fr": null, "name": "Public Library" }, "geometry": { "type": "Point", "coordinates": [ 79.9167218, 6.9347138 ] } },
{ "type": "Feature", "properties": { "full_id": "n2902370501", "osm_id": "2902370501", "osm_type": "node", "amenity": "library", "description": null, "wheelchair": null, "entrance": null, "check_date": null, "access": null, "operator:type": null, "internet_access": null, "designation": "Prdeshiya saba Narammala", "name:en": null, "phone": null, "operator": null, "addr:postcode": null, "addr:housenumber": null, "addr:street": null, "addr:city": null, "wikipedia": null, "wikidata": null, "website": null, "opening_hours": null, "name:ta": null, "name:fr": null, "name": "Dambadeniya Libery" }, "geometry": { "type": "Point", "coordinates": [ 80.1476139, 7.3667154 ] } },
{ "type": "Feature", "properties": { "full_id": "n2906686455", "osm_id": "2906686455", "osm_type": "node", "amenity": "library", "description": null, "wheelchair": null, "entrance": null, "check_date": null, "access": null, "operator:type": null, "internet_access": null, "designation": "Public Library", "name:en": null, "phone": null, "operator": null, "addr:postcode": null, "addr:housenumber": null, "addr:street": null, "addr:city": "Baddegama", "wikipedia": null, "wikidata": null, "website": null, "opening_hours": null, "name:ta": null, "name:fr": null, "name": "Public Library" }, "geometry": { "type": "Point", "coordinates": [ 80.1807814, 6.1673136 ] } },
{ "type": "Feature", "properties": { "full_id": "n3141880790", "osm_id": "3141880790", "osm_type": "node", "amenity": "library", "description": null, "wheelchair": null, "entrance": null, "check_date": null, "access": null, "operator:type": null, "internet_access": null, "designation": null, "name:en": null, "phone": null, "operator": null, "addr:postcode": null, "addr:housenumber": null, "addr:street": null, "addr:city": null, "wikipedia": null, "wikidata": null, "website": null, "opening_hours": null, "name:ta": null, "name:fr": null, "name": null }, "geometry": { "type": "Point", "coordinates": [ 79.9191275, 6.9010975 ] } },
{ "type": "Feature", "properties": { "full_id": "n3199103626", "osm_id": "3199103626", "osm_type": "node", "amenity": "library", "description": null, "wheelchair": null, "entrance": null, "check_date": null, "access": null, "operator:type": null, "internet_access": null, "designation": null, "name:en": null, "phone": null, "operator": null, "addr:postcode": null, "addr:housenumber": null, "addr:street": null, "addr:city": null, "wikipedia": null, "wikidata": null, "website": null, "opening_hours": null, "name:ta": null, "name:fr": null, "name": "Jayawardenapura Kotte Library" }, "geometry": { "type": "Point", "coordinates": [ 79.8956379, 6.9093832 ] } },
{ "type": "Feature", "properties": { "full_id": "n3207193061", "osm_id": "3207193061", "osm_type": "node", "amenity": "library", "description": null, "wheelchair": null, "entrance": null, "check_date": null, "access": null, "operator:type": null, "internet_access": null, "designation": null, "name:en": null, "phone": null, "operator": null, "addr:postcode": null, "addr:housenumber": null, "addr:street": null, "addr:city": null, "wikipedia": null, "wikidata": null, "website": null, "opening_hours": null, "name:ta": null, "name:fr": null, "name": "Mawathagama Public Library" }, "geometry": { "type": "Point", "coordinates": [ 80.4506653, 7.430096 ] } },
{ "type": "Feature", "properties": { "full_id": "n3318139706", "osm_id": "3318139706", "osm_type": "node", "amenity": "library", "description": null, "wheelchair": null, "entrance": null, "check_date": null, "access": null, "operator:type": null, "internet_access": null, "designation": null, "name:en": null, "phone": null, "operator": null, "addr:postcode": null, "addr:housenumber": null, "addr:street": null, "addr:city": "Pandiruppu", "wikipedia": null, "wikidata": null, "website": null, "opening_hours": null, "name:ta": null, "name:fr": null, "name": "Public Library" }, "geometry": { "type": "Point", "coordinates": [ 81.8165952, 7.4258802 ] } },
{ "type": "Feature", "properties": { "full_id": "n3401467547", "osm_id": "3401467547", "osm_type": "node", "amenity": "library", "description": null, "wheelchair": null, "entrance": null, "check_date": null, "access": null, "operator:type": null, "internet_access": null, "designation": null, "name:en": null, "phone": null, "operator": null, "addr:postcode": null, "addr:housenumber": null, "addr:street": "Ramanathan Avenue", "addr:city": "Dehiwala", "wikipedia": null, "wikidata": null, "website": null, "opening_hours": null, "name:ta": null, "name:fr": null, "name": "Public Library Dehiwala" }, "geometry": { "type": "Point", "coordinates": [ 79.8614919, 6.8602311 ] } },
{ "type": "Feature", "properties": { "full_id": "n3455742239", "osm_id": "3455742239", "osm_type": "node", "amenity": "library", "description": null, "wheelchair": null, "entrance": null, "check_date": null, "access": null, "operator:type": null, "internet_access": null, "designation": null, "name:en": null, "phone": null, "operator": null, "addr:postcode": null, "addr:housenumber": null, "addr:street": null, "addr:city": null, "wikipedia": null, "wikidata": null, "website": null, "opening_hours": null, "name:ta": null, "name:fr": null, "name": "Ariyalai Community Centre" }, "geometry": { "type": "Point", "coordinates": [ 80.0382699, 9.6600336 ] } },
{ "type": "Feature", "properties": { "full_id": "n3522121868", "osm_id": "3522121868", "osm_type": "node", "amenity": "library", "description": null, "wheelchair": null, "entrance": null, "check_date": null, "access": null, "operator:type": null, "internet_access": null, "designation": null, "name:en": null, "phone": null, "operator": null, "addr:postcode": null, "addr:housenumber": null, "addr:street": null, "addr:city": null, "wikipedia": null, "wikidata": null, "website": null, "opening_hours": null, "name:ta": null, "name:fr": null, "name": "Ariyalai Arunothaya Community Center" }, "geometry": { "type": "Point", "coordinates": [ 80.0460268, 9.6657729 ] } },
{ "type": "Feature", "properties": { "full_id": "n3554515231", "osm_id": "3554515231", "osm_type": "node", "amenity": "library", "description": null, "wheelchair": null, "entrance": null, "check_date": null, "access": null, "operator:type": null, "internet_access": null, "designation": null, "name:en": null, "phone": null, "operator": null, "addr:postcode": null, "addr:housenumber": null, "addr:street": null, "addr:city": null, "wikipedia": null, "wikidata": null, "website": null, "opening_hours": null, "name:ta": null, "name:fr": null, "name": "Sri Atputha Narthana Vinayakar Community Centre and Kumarns Sports Club" }, "geometry": { "type": "Point", "coordinates": [ 80.0361937, 9.7018138 ] } },
{ "type": "Feature", "properties": { "full_id": "n3595987170", "osm_id": "3595987170", "osm_type": "node", "amenity": "library", "description": null, "wheelchair": null, "entrance": null, "check_date": null, "access": null, "operator:type": null, "internet_access": null, "designation": null, "name:en": null, "phone": null, "operator": "Ambalantota Pradeshiya sabha", "addr:postcode": null, "addr:housenumber": null, "addr:street": null, "addr:city": null, "wikipedia": null, "wikidata": null, "website": null, "opening_hours": "Mo-Fr 09:00-16:00", "name:ta": null, "name:fr": null, "name": "Hungama Library" }, "geometry": { "type": "Point", "coordinates": [ 80.932134, 6.1103974 ] } },
{ "type": "Feature", "properties": { "full_id": "n3671750122", "osm_id": "3671750122", "osm_type": "node", "amenity": "library", "description": null, "wheelchair": null, "entrance": null, "check_date": null, "access": null, "operator:type": null, "internet_access": null, "designation": null, "name:en": null, "phone": null, "operator": "British Council Sri Lanka", "addr:postcode": null, "addr:housenumber": null, "addr:street": null, "addr:city": null, "wikipedia": null, "wikidata": null, "website": null, "opening_hours": null, "name:ta": null, "name:fr": null, "name": "British Council" }, "geometry": { "type": "Point", "coordinates": [ 80.0283569, 9.664223 ] } },
{ "type": "Feature", "properties": { "full_id": "n3928880159", "osm_id": "3928880159", "osm_type": "node", "amenity": "library", "description": null, "wheelchair": null, "entrance": null, "check_date": null, "access": null, "operator:type": null, "internet_access": null, "designation": null, "name:en": null, "phone": null, "operator": null, "addr:postcode": null, "addr:housenumber": null, "addr:street": null, "addr:city": null, "wikipedia": null, "wikidata": null, "website": null, "opening_hours": null, "name:ta": null, "name:fr": null, "name": "Vavunya South Pradesiya Saba Library" }, "geometry": { "type": "Point", "coordinates": [ 80.4674753, 8.7485208 ] } },
{ "type": "Feature", "properties": { "full_id": "n3956854735", "osm_id": "3956854735", "osm_type": "node", "amenity": "library", "description": null, "wheelchair": null, "entrance": null, "check_date": null, "access": null, "operator:type": null, "internet_access": null, "designation": null, "name:en": null, "phone": null, "operator": null, "addr:postcode": null, "addr:housenumber": null, "addr:street": null, "addr:city": null, "wikipedia": null, "wikidata": null, "website": null, "opening_hours": null, "name:ta": "பொது நூலகம்", "name:fr": null, "name": "Public Liberary" }, "geometry": { "type": "Point", "coordinates": [ 80.6603383, 9.0603586 ] } },
{ "type": "Feature", "properties": { "full_id": "n4001242420", "osm_id": "4001242420", "osm_type": "node", "amenity": "library", "description": null, "wheelchair": null, "entrance": null, "check_date": null, "access": null, "operator:type": null, "internet_access": null, "designation": null, "name:en": null, "phone": null, "operator": null, "addr:postcode": null, "addr:housenumber": null, "addr:street": null, "addr:city": null, "wikipedia": null, "wikidata": null, "website": null, "opening_hours": null, "name:ta": null, "name:fr": null, "name": null }, "geometry": { "type": "Point", "coordinates": [ 81.8262442, 7.2248456 ] } },
{ "type": "Feature", "properties": { "full_id": "n4045510630", "osm_id": "4045510630", "osm_type": "node", "amenity": "library", "description": null, "wheelchair": null, "entrance": null, "check_date": null, "access": null, "operator:type": null, "internet_access": null, "designation": null, "name:en": null, "phone": null, "operator": null, "addr:postcode": null, "addr:housenumber": null, "addr:street": "Thiruwanaketiya - Agalawatte Road", "addr:city": "Kalawana", "wikipedia": null, "wikidata": null, "website": null, "opening_hours": null, "name:ta": null, "name:fr": null, "name": "Public Library" }, "geometry": { "type": "Point", "coordinates": [ 80.3978145, 6.5328773 ] } },
{ "type": "Feature", "properties": { "full_id": "n4163320489", "osm_id": "4163320489", "osm_type": "node", "amenity": "library", "description": null, "wheelchair": null, "entrance": null, "check_date": null, "access": null, "operator:type": null, "internet_access": null, "designation": null, "name:en": null, "phone": null, "operator": null, "addr:postcode": null, "addr:housenumber": null, "addr:street": null, "addr:city": null, "wikipedia": null, "wikidata": null, "website": null, "opening_hours": null, "name:ta": null, "name:fr": null, "name": "Ulukkulam Liberary" }, "geometry": { "type": "Point", "coordinates": [ 80.4103081, 8.6717555 ] } },
{ "type": "Feature", "properties": { "full_id": "n4210853128", "osm_id": "4210853128", "osm_type": "node", "amenity": "library", "description": null, "wheelchair": null, "entrance": null, "check_date": null, "access": null, "operator:type": null, "internet_access": null, "designation": null, "name:en": null, "phone": null, "operator": null, "addr:postcode": null, "addr:housenumber": null, "addr:street": null, "addr:city": null, "wikipedia": null, "wikidata": null, "website": null, "opening_hours": null, "name:ta": null, "name:fr": null, "name": "Liberary" }, "geometry": { "type": "Point", "coordinates": [ 80.418361, 8.8372798 ] } },
{ "type": "Feature", "properties": { "full_id": "n4265854091", "osm_id": "4265854091", "osm_type": "node", "amenity": "library", "description": null, "wheelchair": null, "entrance": null, "check_date": null, "access": null, "operator:type": null, "internet_access": null, "designation": null, "name:en": null, "phone": null, "operator": null, "addr:postcode": null, "addr:housenumber": null, "addr:street": null, "addr:city": null, "wikipedia": null, "wikidata": null, "website": null, "opening_hours": null, "name:ta": null, "name:fr": null, "name": "Mahajana Pusthakalya" }, "geometry": { "type": "Point", "coordinates": [ 81.0442509, 7.6756958 ] } },
{ "type": "Feature", "properties": { "full_id": "n4352140093", "osm_id": "4352140093", "osm_type": "node", "amenity": "library", "description": null, "wheelchair": null, "entrance": null, "check_date": null, "access": null, "operator:type": null, "internet_access": null, "designation": null, "name:en": null, "phone": null, "operator": null, "addr:postcode": null, "addr:housenumber": null, "addr:street": null, "addr:city": null, "wikipedia": null, "wikidata": null, "website": null, "opening_hours": null, "name:ta": null, "name:fr": null, "name": "Public Library Kiridiwala" }, "geometry": { "type": "Point", "coordinates": [ 80.1295151, 7.0424688 ] } },
{ "type": "Feature", "properties": { "full_id": "n4352686072", "osm_id": "4352686072", "osm_type": "node", "amenity": "library", "description": null, "wheelchair": null, "entrance": null, "check_date": null, "access": null, "operator:type": null, "internet_access": null, "designation": null, "name:en": null, "phone": null, "operator": null, "addr:postcode": null, "addr:housenumber": null, "addr:street": null, "addr:city": null, "wikipedia": null, "wikidata": null, "website": null, "opening_hours": null, "name:ta": null, "name:fr": null, "name": "Velanai Pradesiya Saba's Public liberary" }, "geometry": { "type": "Point", "coordinates": [ 79.902955, 9.6378199 ] } },
{ "type": "Feature", "properties": { "full_id": "n4353492289", "osm_id": "4353492289", "osm_type": "node", "amenity": "library", "description": null, "wheelchair": null, "entrance": null, "check_date": null, "access": null, "operator:type": null, "internet_access": null, "designation": null, "name:en": null, "phone": null, "operator": null, "addr:postcode": null, "addr:housenumber": null, "addr:street": null, "addr:city": null, "wikipedia": null, "wikidata": null, "website": null, "opening_hours": null, "name:ta": null, "name:fr": null, "name": "Urban Council Library" }, "geometry": { "type": "Point", "coordinates": [ 80.237399, 9.8235737 ] } },
{ "type": "Feature", "properties": { "full_id": "n4370658591", "osm_id": "4370658591", "osm_type": "node", "amenity": "library", "description": null, "wheelchair": null, "entrance": null, "check_date": null, "access": null, "operator:type": null, "internet_access": null, "designation": null, "name:en": "Public Library", "phone": null, "operator": null, "addr:postcode": null, "addr:housenumber": null, "addr:street": null, "addr:city": null, "wikipedia": null, "wikidata": null, "website": null, "opening_hours": null, "name:ta": null, "name:fr": null, "name": null }, "geometry": { "type": "Point", "coordinates": [ 81.8462474, 7.3532414 ] } },
{ "type": "Feature", "properties": { "full_id": "n4370702911", "osm_id": "4370702911", "osm_type": "node", "amenity": "library", "description": null, "wheelchair": null, "entrance": null, "check_date": null, "access": null, "operator:type": null, "internet_access": null, "designation": null, "name:en": "Alliance Francais - French Laguage Training Centre", "phone": null, "operator": null, "addr:postcode": null, "addr:housenumber": null, "addr:street": null, "addr:city": null, "wikipedia": null, "wikidata": null, "website": null, "opening_hours": null, "name:ta": null, "name:fr": null, "name": null }, "geometry": { "type": "Point", "coordinates": [ 80.0306536, 9.6634632 ] } },
{ "type": "Feature", "properties": { "full_id": "n4544107715", "osm_id": "4544107715", "osm_type": "node", "amenity": "library", "description": null, "wheelchair": null, "entrance": null, "check_date": null, "access": null, "operator:type": null, "internet_access": null, "designation": null, "name:en": null, "phone": null, "operator": null, "addr:postcode": null, "addr:housenumber": null, "addr:street": null, "addr:city": null, "wikipedia": null, "wikidata": null, "website": null, "opening_hours": null, "name:ta": null, "name:fr": null, "name": "Welisara Public Library" }, "geometry": { "type": "Point", "coordinates": [ 79.8997198, 7.0213461 ] } },
{ "type": "Feature", "properties": { "full_id": "n4601115976", "osm_id": "4601115976", "osm_type": "node", "amenity": "library", "description": null, "wheelchair": null, "entrance": null, "check_date": null, "access": null, "operator:type": null, "internet_access": null, "designation": null, "name:en": null, "phone": null, "operator": null, "addr:postcode": null, "addr:housenumber": null, "addr:street": null, "addr:city": null, "wikipedia": null, "wikidata": null, "website": null, "opening_hours": null, "name:ta": "கச்சேரி கிழக்கு நூலகம்", "name:fr": null, "name": "Kachcheri East Liberary" }, "geometry": { "type": "Point", "coordinates": [ 80.03647, 9.6611755 ] } },
{ "type": "Feature", "properties": { "full_id": "n4737286024", "osm_id": "4737286024", "osm_type": "node", "amenity": "library", "description": null, "wheelchair": null, "entrance": null, "check_date": null, "access": null, "operator:type": null, "internet_access": "wlan", "designation": null, "name:en": "Digana Public Librart", "phone": null, "operator": null, "addr:postcode": null, "addr:housenumber": null, "addr:street": "Madawala-Rajawella Road", "addr:city": null, "wikipedia": null, "wikidata": null, "website": null, "opening_hours": "Mo-Fr 08:00-04:00", "name:ta": null, "name:fr": null, "name": null }, "geometry": { "type": "Point", "coordinates": [ 80.7340244, 7.2993939 ] } },
{ "type": "Feature", "properties": { "full_id": "n4772203116", "osm_id": "4772203116", "osm_type": "node", "amenity": "library", "description": null, "wheelchair": null, "entrance": null, "check_date": null, "access": null, "operator:type": null, "internet_access": null, "designation": null, "name:en": null, "phone": null, "operator": null, "addr:postcode": null, "addr:housenumber": null, "addr:street": null, "addr:city": null, "wikipedia": null, "wikidata": null, "website": null, "opening_hours": null, "name:ta": null, "name:fr": null, "name": "Attidiya Library" }, "geometry": { "type": "Point", "coordinates": [ 79.8857461, 6.8368968 ] } },
{ "type": "Feature", "properties": { "full_id": "n4927965765", "osm_id": "4927965765", "osm_type": "node", "amenity": "library", "description": null, "wheelchair": null, "entrance": null, "check_date": null, "access": null, "operator:type": null, "internet_access": "no", "designation": null, "name:en": null, "phone": null, "operator": null, "addr:postcode": null, "addr:housenumber": null, "addr:street": null, "addr:city": null, "wikipedia": null, "wikidata": null, "website": null, "opening_hours": null, "name:ta": null, "name:fr": null, "name": "Maruthamunai Library" }, "geometry": { "type": "Point", "coordinates": [ 81.8159766, 7.436343 ] } },
{ "type": "Feature", "properties": { "full_id": "n4994868462", "osm_id": "4994868462", "osm_type": "node", "amenity": "library", "description": null, "wheelchair": null, "entrance": null, "check_date": null, "access": null, "operator:type": null, "internet_access": null, "designation": null, "name:en": null, "phone": null, "operator": null, "addr:postcode": null, "addr:housenumber": null, "addr:street": "Hettipola New Town Road", "addr:city": "Hettipola", "wikipedia": null, "wikidata": null, "website": null, "opening_hours": null, "name:ta": null, "name:fr": null, "name": "Central public library" }, "geometry": { "type": "Point", "coordinates": [ 80.9160285, 7.5397572 ] } },
{ "type": "Feature", "properties": { "full_id": "n5048969122", "osm_id": "5048969122", "osm_type": "node", "amenity": "library", "description": null, "wheelchair": null, "entrance": null, "check_date": null, "access": null, "operator:type": null, "internet_access": null, "designation": null, "name:en": null, "phone": null, "operator": null, "addr:postcode": null, "addr:housenumber": null, "addr:street": null, "addr:city": null, "wikipedia": null, "wikidata": null, "website": null, "opening_hours": null, "name:ta": null, "name:fr": null, "name": "Kotagala Public Library" }, "geometry": { "type": "Point", "coordinates": [ 80.6164446, 6.9267038 ] } },
{ "type": "Feature", "properties": { "full_id": "n5051129027", "osm_id": "5051129027", "osm_type": "node", "amenity": "library", "description": null, "wheelchair": null, "entrance": null, "check_date": null, "access": null, "operator:type": null, "internet_access": null, "designation": null, "name:en": null, "phone": null, "operator": null, "addr:postcode": null, "addr:housenumber": null, "addr:street": null, "addr:city": null, "wikipedia": null, "wikidata": null, "website": null, "opening_hours": null, "name:ta": null, "name:fr": null, "name": null }, "geometry": { "type": "Point", "coordinates": [ 79.8894718, 9.6495273 ] } },
{ "type": "Feature", "properties": { "full_id": "n5160537260", "osm_id": "5160537260", "osm_type": "node", "amenity": "library", "description": null, "wheelchair": null, "entrance": null, "check_date": null, "access": null, "operator:type": null, "internet_access": null, "designation": null, "name:en": null, "phone": null, "operator": null, "addr:postcode": null, "addr:housenumber": null, "addr:street": null, "addr:city": null, "wikipedia": null, "wikidata": null, "website": null, "opening_hours": null, "name:ta": null, "name:fr": null, "name": "Ankumbura Public Library" }, "geometry": { "type": "Point", "coordinates": [ 80.5736329, 7.4359676 ] } },
{ "type": "Feature", "properties": { "full_id": "n5160654739", "osm_id": "5160654739", "osm_type": "node", "amenity": "library", "description": null, "wheelchair": null, "entrance": null, "check_date": null, "access": null, "operator:type": null, "internet_access": null, "designation": null, "name:en": null, "phone": null, "operator": null, "addr:postcode": null, "addr:housenumber": null, "addr:street": null, "addr:city": null, "wikipedia": null, "wikidata": null, "website": null, "opening_hours": null, "name:ta": null, "name:fr": null, "name": "Batugoda Public Library" }, "geometry": { "type": "Point", "coordinates": [ 80.5989285, 7.3677519 ] } },
{ "type": "Feature", "properties": { "full_id": "n5164914010", "osm_id": "5164914010", "osm_type": "node", "amenity": "library", "description": null, "wheelchair": null, "entrance": null, "check_date": null, "access": null, "operator:type": null, "internet_access": null, "designation": null, "name:en": null, "phone": null, "operator": null, "addr:postcode": null, "addr:housenumber": null, "addr:street": null, "addr:city": null, "wikipedia": null, "wikidata": null, "website": null, "opening_hours": null, "name:ta": null, "name:fr": null, "name": "Marathugoda Public Library" }, "geometry": { "type": "Point", "coordinates": [ 80.5688835, 7.3819717 ] } },
{ "type": "Feature", "properties": { "full_id": "n5164934736", "osm_id": "5164934736", "osm_type": "node", "amenity": "library", "description": null, "wheelchair": null, "entrance": null, "check_date": null, "access": null, "operator:type": null, "internet_access": null, "designation": null, "name:en": null, "phone": null, "operator": null, "addr:postcode": null, "addr:housenumber": null, "addr:street": null, "addr:city": null, "wikipedia": null, "wikidata": null, "website": null, "opening_hours": null, "name:ta": null, "name:fr": null, "name": "Bokkawala Public Library" }, "geometry": { "type": "Point", "coordinates": [ 80.5531678, 7.3932253 ] } },
{ "type": "Feature", "properties": { "full_id": "n5174699443", "osm_id": "5174699443", "osm_type": "node", "amenity": "library", "description": null, "wheelchair": null, "entrance": null, "check_date": null, "access": null, "operator:type": null, "internet_access": null, "designation": null, "name:en": null, "phone": null, "operator": null, "addr:postcode": null, "addr:housenumber": null, "addr:street": "Sri Maha Bodhi Mawatha", "addr:city": "Anuradhapura", "wikipedia": null, "wikidata": null, "website": null, "opening_hours": null, "name:ta": null, "name:fr": null, "name": "Mahavihara Oriental Library" }, "geometry": { "type": "Point", "coordinates": [ 80.3980454, 8.3450997 ] } },
{ "type": "Feature", "properties": { "full_id": "n5203400762", "osm_id": "5203400762", "osm_type": "node", "amenity": "library", "description": null, "wheelchair": null, "entrance": null, "check_date": null, "access": null, "operator:type": null, "internet_access": null, "designation": null, "name:en": null, "phone": null, "operator": null, "addr:postcode": null, "addr:housenumber": null, "addr:street": null, "addr:city": null, "wikipedia": null, "wikidata": null, "website": null, "opening_hours": null, "name:ta": null, "name:fr": null, "name": "pothupitiya library" }, "geometry": { "type": "Point", "coordinates": [ 80.5108193, 6.429553 ] } },
{ "type": "Feature", "properties": { "full_id": "n5493480995", "osm_id": "5493480995", "osm_type": "node", "amenity": "library", "description": null, "wheelchair": null, "entrance": null, "check_date": null, "access": null, "operator:type": null, "internet_access": null, "designation": null, "name:en": null, "phone": null, "operator": null, "addr:postcode": null, "addr:housenumber": null, "addr:street": "Kurunegala-Narammala-Madampe Road", "addr:city": "Narammala", "wikipedia": null, "wikidata": null, "website": null, "opening_hours": null, "name:ta": null, "name:fr": null, "name": "Narammala Public Library" }, "geometry": { "type": "Point", "coordinates": [ 80.2138459, 7.4325987 ] } },
{ "type": "Feature", "properties": { "full_id": "n5537067621", "osm_id": "5537067621", "osm_type": "node", "amenity": "library", "description": null, "wheelchair": null, "entrance": null, "check_date": null, "access": null, "operator:type": null, "internet_access": null, "designation": null, "name:en": null, "phone": null, "operator": null, "addr:postcode": null, "addr:housenumber": null, "addr:street": null, "addr:city": null, "wikipedia": null, "wikidata": null, "website": null, "opening_hours": null, "name:ta": null, "name:fr": "Lecture chapitres de la vie", "name": null }, "geometry": { "type": "Point", "coordinates": [ 79.8553832, 6.8897507 ] } },
{ "type": "Feature", "properties": { "full_id": "n5582045723", "osm_id": "5582045723", "osm_type": "node", "amenity": "library", "description": null, "wheelchair": null, "entrance": null, "check_date": null, "access": null, "operator:type": null, "internet_access": null, "designation": null, "name:en": null, "phone": null, "operator": null, "addr:postcode": null, "addr:housenumber": null, "addr:street": null, "addr:city": null, "wikipedia": null, "wikidata": null, "website": null, "opening_hours": null, "name:ta": null, "name:fr": null, "name": "Public Library" }, "geometry": { "type": "Point", "coordinates": [ 81.2370906, 8.5716912 ] } },
{ "type": "Feature", "properties": { "full_id": "n5643497742", "osm_id": "5643497742", "osm_type": "node", "amenity": "library", "description": null, "wheelchair": null, "entrance": null, "check_date": null, "access": null, "operator:type": null, "internet_access": null, "designation": null, "name:en": null, "phone": null, "operator": null, "addr:postcode": null, "addr:housenumber": null, "addr:street": null, "addr:city": null, "wikipedia": null, "wikidata": null, "website": null, "opening_hours": null, "name:ta": null, "name:fr": null, "name": null }, "geometry": { "type": "Point", "coordinates": [ 79.9012828, 6.795217 ] } },
{ "type": "Feature", "properties": { "full_id": "n5880901182", "osm_id": "5880901182", "osm_type": "node", "amenity": "library", "description": null, "wheelchair": null, "entrance": null, "check_date": null, "access": null, "operator:type": null, "internet_access": null, "designation": null, "name:en": null, "phone": null, "operator": null, "addr:postcode": "11150", "addr:housenumber": null, "addr:street": null, "addr:city": "Pallewela", "wikipedia": null, "wikidata": null, "website": null, "opening_hours": null, "name:ta": null, "name:fr": null, "name": "Pallewela Library" }, "geometry": { "type": "Point", "coordinates": [ 80.0996603, 7.1979913 ] } },
{ "type": "Feature", "properties": { "full_id": "n6073679184", "osm_id": "6073679184", "osm_type": "node", "amenity": "library", "description": null, "wheelchair": null, "entrance": null, "check_date": null, "access": null, "operator:type": null, "internet_access": null, "designation": null, "name:en": null, "phone": null, "operator": null, "addr:postcode": null, "addr:housenumber": null, "addr:street": null, "addr:city": null, "wikipedia": null, "wikidata": null, "website": null, "opening_hours": null, "name:ta": null, "name:fr": null, "name": "Swarna Jayanthi Public Library" }, "geometry": { "type": "Point", "coordinates": [ 80.3787674, 7.4130577 ] } },
{ "type": "Feature", "properties": { "full_id": "n6267498461", "osm_id": "6267498461", "osm_type": "node", "amenity": "library", "description": null, "wheelchair": null, "entrance": null, "check_date": null, "access": null, "operator:type": null, "internet_access": null, "designation": null, "name:en": null, "phone": null, "operator": null, "addr:postcode": null, "addr:housenumber": null, "addr:street": null, "addr:city": null, "wikipedia": null, "wikidata": null, "website": null, "opening_hours": null, "name:ta": null, "name:fr": null, "name": null }, "geometry": { "type": "Point", "coordinates": [ 81.8432726, 7.1023719 ] } },
{ "type": "Feature", "properties": { "full_id": "n6375949886", "osm_id": "6375949886", "osm_type": "node", "amenity": "library", "description": null, "wheelchair": null, "entrance": null, "check_date": null, "access": null, "operator:type": null, "internet_access": null, "designation": null, "name:en": null, "phone": null, "operator": null, "addr:postcode": null, "addr:housenumber": null, "addr:street": null, "addr:city": null, "wikipedia": null, "wikidata": null, "website": null, "opening_hours": null, "name:ta": null, "name:fr": null, "name": "Kinniya Library" }, "geometry": { "type": "Point", "coordinates": [ 81.1818897, 8.5024335 ] } },
{ "type": "Feature", "properties": { "full_id": "n6538664581", "osm_id": "6538664581", "osm_type": "node", "amenity": "library", "description": null, "wheelchair": null, "entrance": null, "check_date": null, "access": null, "operator:type": null, "internet_access": null, "designation": null, "name:en": null, "phone": null, "operator": null, "addr:postcode": null, "addr:housenumber": null, "addr:street": null, "addr:city": null, "wikipedia": null, "wikidata": null, "website": null, "opening_hours": null, "name:ta": null, "name:fr": null, "name": "Kotahena Library" }, "geometry": { "type": "Point", "coordinates": [ 79.8615732, 6.9479243 ] } },
{ "type": "Feature", "properties": { "full_id": "n6702943955", "osm_id": "6702943955", "osm_type": "node", "amenity": "library", "description": null, "wheelchair": null, "entrance": null, "check_date": null, "access": null, "operator:type": null, "internet_access": null, "designation": null, "name:en": null, "phone": null, "operator": null, "addr:postcode": null, "addr:housenumber": null, "addr:street": "Peradeniya-Badulla-Chenkaladi Road", "addr:city": "Badulla", "wikipedia": null, "wikidata": null, "website": null, "opening_hours": null, "name:ta": null, "name:fr": null, "name": "Senarath Paranavithana Public Library" }, "geometry": { "type": "Point", "coordinates": [ 81.057307, 6.9897154 ] } },
{ "type": "Feature", "properties": { "full_id": "n7082462790", "osm_id": "7082462790", "osm_type": "node", "amenity": "library", "description": null, "wheelchair": null, "entrance": null, "check_date": null, "access": null, "operator:type": null, "internet_access": null, "designation": null, "name:en": null, "phone": null, "operator": null, "addr:postcode": null, "addr:housenumber": null, "addr:street": null, "addr:city": null, "wikipedia": null, "wikidata": null, "website": null, "opening_hours": null, "name:ta": null, "name:fr": null, "name": "Nuwara Eliya Public Library" }, "geometry": { "type": "Point", "coordinates": [ 80.7674298, 6.9707132 ] } },
{ "type": "Feature", "properties": { "full_id": "n7690886563", "osm_id": "7690886563", "osm_type": "node", "amenity": "library", "description": null, "wheelchair": null, "entrance": null, "check_date": null, "access": null, "operator:type": null, "internet_access": null, "designation": null, "name:en": null, "phone": null, "operator": null, "addr:postcode": null, "addr:housenumber": null, "addr:street": null, "addr:city": null, "wikipedia": null, "wikidata": null, "website": null, "opening_hours": null, "name:ta": null, "name:fr": null, "name": null }, "geometry": { "type": "Point", "coordinates": [ 81.1920644, 8.5501328 ] } },
{ "type": "Feature", "properties": { "full_id": "n7903907871", "osm_id": "7903907871", "osm_type": "node", "amenity": "library", "description": null, "wheelchair": null, "entrance": null, "check_date": null, "access": null, "operator:type": null, "internet_access": null, "designation": null, "name:en": null, "phone": null, "operator": null, "addr:postcode": null, "addr:housenumber": null, "addr:street": null, "addr:city": null, "wikipedia": null, "wikidata": null, "website": null, "opening_hours": null, "name:ta": null, "name:fr": null, "name": null }, "geometry": { "type": "Point", "coordinates": [ 79.9532107, 6.9462792 ] } },
{ "type": "Feature", "properties": { "full_id": "n8283980699", "osm_id": "8283980699", "osm_type": "node", "amenity": "library", "description": null, "wheelchair": null, "entrance": null, "check_date": null, "access": null, "operator:type": null, "internet_access": null, "designation": null, "name:en": null, "phone": null, "operator": null, "addr:postcode": null, "addr:housenumber": null, "addr:street": null, "addr:city": null, "wikipedia": null, "wikidata": null, "website": null, "opening_hours": null, "name:ta": null, "name:fr": null, "name": "Godagama Public Library" }, "geometry": { "type": "Point", "coordinates": [ 80.078162, 6.1782736 ] } },
{ "type": "Feature", "properties": { "full_id": "n8400189194", "osm_id": "8400189194", "osm_type": "node", "amenity": "library", "description": null, "wheelchair": null, "entrance": null, "check_date": null, "access": null, "operator:type": null, "internet_access": null, "designation": null, "name:en": null, "phone": null, "operator": null, "addr:postcode": null, "addr:housenumber": null, "addr:street": null, "addr:city": null, "wikipedia": null, "wikidata": null, "website": null, "opening_hours": null, "name:ta": null, "name:fr": null, "name": "Ratnapura New Public Library" }, "geometry": { "type": "Point", "coordinates": [ 80.3826965, 6.7062896 ] } },
{ "type": "Feature", "properties": { "full_id": "n9410054866", "osm_id": "9410054866", "osm_type": "node", "amenity": "library", "description": null, "wheelchair": null, "entrance": null, "check_date": null, "access": null, "operator:type": null, "internet_access": null, "designation": null, "name:en": null, "phone": null, "operator": null, "addr:postcode": null, "addr:housenumber": null, "addr:street": null, "addr:city": null, "wikipedia": null, "wikidata": null, "website": null, "opening_hours": null, "name:ta": null, "name:fr": null, "name": "Municipal Reading Hall" }, "geometry": { "type": "Point", "coordinates": [ 79.8943642, 6.9205337 ] } },
{ "type": "Feature", "properties": { "full_id": "n9667941996", "osm_id": "9667941996", "osm_type": "node", "amenity": "library", "description": null, "wheelchair": null, "entrance": null, "check_date": null, "access": null, "operator:type": null, "internet_access": null, "designation": null, "name:en": null, "phone": null, "operator": null, "addr:postcode": null, "addr:housenumber": null, "addr:street": null, "addr:city": null, "wikipedia": null, "wikidata": null, "website": null, "opening_hours": null, "name:ta": null, "name:fr": null, "name": "Pottuvil Public Library" }, "geometry": { "type": "Point", "coordinates": [ 81.8301354, 6.8490904 ] } },
{ "type": "Feature", "properties": { "full_id": "n9767295826", "osm_id": "9767295826", "osm_type": "node", "amenity": "library", "description": null, "wheelchair": null, "entrance": null, "check_date": null, "access": null, "operator:type": null, "internet_access": null, "designation": null, "name:en": null, "phone": null, "operator": null, "addr:postcode": null, "addr:housenumber": null, "addr:street": null, "addr:city": null, "wikipedia": null, "wikidata": null, "website": null, "opening_hours": null, "name:ta": null, "name:fr": null, "name": "Public Library, Kiliveddy" }, "geometry": { "type": "Point", "coordinates": [ 81.2853861, 8.3514764 ] } },
{ "type": "Feature", "properties": { "full_id": "n9770255173", "osm_id": "9770255173", "osm_type": "node", "amenity": "library", "description": null, "wheelchair": null, "entrance": null, "check_date": null, "access": null, "operator:type": null, "internet_access": null, "designation": null, "name:en": null, "phone": null, "operator": null, "addr:postcode": null, "addr:housenumber": null, "addr:street": null, "addr:city": null, "wikipedia": null, "wikidata": null, "website": null, "opening_hours": null, "name:ta": null, "name:fr": null, "name": "Welimada Public Library" }, "geometry": { "type": "Point", "coordinates": [ 80.9148242, 6.9055551 ] } },
{ "type": "Feature", "properties": { "full_id": "n9770950320", "osm_id": "9770950320", "osm_type": "node", "amenity": "library", "description": null, "wheelchair": null, "entrance": null, "check_date": null, "access": null, "operator:type": null, "internet_access": null, "designation": null, "name:en": null, "phone": null, "operator": null, "addr:postcode": null, "addr:housenumber": null, "addr:street": null, "addr:city": null, "wikipedia": null, "wikidata": null, "website": null, "opening_hours": null, "name:ta": null, "name:fr": null, "name": "Vantharumoolai Public Library" }, "geometry": { "type": "Point", "coordinates": [ 81.5750243, 7.8001344 ] } },
{ "type": "Feature", "properties": { "full_id": "n9771125437", "osm_id": "9771125437", "osm_type": "node", "amenity": "library", "description": null, "wheelchair": null, "entrance": null, "check_date": null, "access": null, "operator:type": null, "internet_access": null, "designation": null, "name:en": null, "phone": null, "operator": null, "addr:postcode": null, "addr:housenumber": null, "addr:street": null, "addr:city": null, "wikipedia": null, "wikidata": null, "website": null, "opening_hours": null, "name:ta": null, "name:fr": null, "name": "ManikkaIdaikkadar Community Center" }, "geometry": { "type": "Point", "coordinates": [ 80.1179885, 9.7980009 ] } },
{ "type": "Feature", "properties": { "full_id": "n9771125438", "osm_id": "9771125438", "osm_type": "node", "amenity": "library", "description": null, "wheelchair": null, "entrance": null, "check_date": null, "access": null, "operator:type": null, "internet_access": null, "designation": null, "name:en": null, "phone": null, "operator": null, "addr:postcode": null, "addr:housenumber": null, "addr:street": null, "addr:city": null, "wikipedia": null, "wikidata": null, "website": null, "opening_hours": null, "name:ta": null, "name:fr": null, "name": "Kalaimahal community Center" }, "geometry": { "type": "Point", "coordinates": [ 80.116277, 9.7999173 ] } },
{ "type": "Feature", "properties": { "full_id": "n9771160439", "osm_id": "9771160439", "osm_type": "node", "amenity": "library", "description": null, "wheelchair": null, "entrance": null, "check_date": null, "access": null, "operator:type": null, "internet_access": null, "designation": null, "name:en": null, "phone": null, "operator": null, "addr:postcode": null, "addr:housenumber": null, "addr:street": null, "addr:city": null, "wikipedia": null, "wikidata": null, "website": null, "opening_hours": null, "name:ta": null, "name:fr": null, "name": "ALM Public Library" }, "geometry": { "type": "Point", "coordinates": [ 80.5275682, 8.0218043 ] } },
{ "type": "Feature", "properties": { "full_id": "n9774013341", "osm_id": "9774013341", "osm_type": "node", "amenity": "library", "description": null, "wheelchair": null, "entrance": null, "check_date": null, "access": null, "operator:type": null, "internet_access": null, "designation": null, "name:en": null, "phone": null, "operator": null, "addr:postcode": null, "addr:housenumber": null, "addr:street": null, "addr:city": null, "wikipedia": null, "wikidata": null, "website": null, "opening_hours": null, "name:ta": null, "name:fr": null, "name": "Public library" }, "geometry": { "type": "Point", "coordinates": [ 81.7902422, 7.5238665 ] } },
{ "type": "Feature", "properties": { "full_id": "n9794330929", "osm_id": "9794330929", "osm_type": "node", "amenity": "library", "description": null, "wheelchair": null, "entrance": null, "check_date": null, "access": null, "operator:type": null, "internet_access": null, "designation": null, "name:en": null, "phone": null, "operator": null, "addr:postcode": null, "addr:housenumber": null, "addr:street": null, "addr:city": null, "wikipedia": null, "wikidata": null, "website": null, "opening_hours": null, "name:ta": null, "name:fr": null, "name": "Public Library - Keppetipola" }, "geometry": { "type": "Point", "coordinates": [ 80.8715681, 6.8949665 ] } },
{ "type": "Feature", "properties": { "full_id": "n9883236034", "osm_id": "9883236034", "osm_type": "node", "amenity": "library", "description": null, "wheelchair": null, "entrance": null, "check_date": null, "access": null, "operator:type": null, "internet_access": null, "designation": null, "name:en": null, "phone": null, "operator": null, "addr:postcode": null, "addr:housenumber": null, "addr:street": null, "addr:city": null, "wikipedia": null, "wikidata": null, "website": null, "opening_hours": null, "name:ta": null, "name:fr": null, "name": "Public Library" }, "geometry": { "type": "Point", "coordinates": [ 80.0581149, 7.1535864 ] } },
{ "type": "Feature", "properties": { "full_id": "n9991543645", "osm_id": "9991543645", "osm_type": "node", "amenity": "library", "description": null, "wheelchair": null, "entrance": null, "check_date": null, "access": null, "operator:type": "public", "internet_access": "no", "designation": null, "name:en": null, "phone": null, "operator": "government", "addr:postcode": "22280", "addr:housenumber": null, "addr:street": "Nildandahinna - Rupaha Road", "addr:city": "Nildandahinna", "wikipedia": null, "wikidata": null, "website": null, "opening_hours": null, "name:ta": null, "name:fr": null, "name": "Nildandahinna public Library" }, "geometry": { "type": "Point", "coordinates": [ 80.8934155, 7.0800123 ] } },
{ "type": "Feature", "properties": { "full_id": "n10148981312", "osm_id": "10148981312", "osm_type": "node", "amenity": "library", "description": null, "wheelchair": null, "entrance": null, "check_date": null, "access": null, "operator:type": null, "internet_access": null, "designation": null, "name:en": null, "phone": null, "operator": null, "addr:postcode": null, "addr:housenumber": null, "addr:street": null, "addr:city": null, "wikipedia": null, "wikidata": null, "website": null, "opening_hours": null, "name:ta": null, "name:fr": null, "name": null }, "geometry": { "type": "Point", "coordinates": [ 80.6499979, 6.947893 ] } },
{ "type": "Feature", "properties": { "full_id": "n10610426173", "osm_id": "10610426173", "osm_type": "node", "amenity": "library", "description": null, "wheelchair": null, "entrance": null, "check_date": "2023-02-06", "access": "yes", "operator:type": "community", "internet_access": null, "designation": null, "name:en": null, "phone": null, "operator": null, "addr:postcode": null, "addr:housenumber": null, "addr:street": null, "addr:city": null, "wikipedia": null, "wikidata": null, "website": null, "opening_hours": null, "name:ta": null, "name:fr": null, "name": "Bhalasingham Memorial Library" }, "geometry": { "type": "Point", "coordinates": [ 79.8733851, 6.8904735 ] } },
{ "type": "Feature", "properties": { "full_id": "n10673366446", "osm_id": "10673366446", "osm_type": "node", "amenity": "library", "description": null, "wheelchair": null, "entrance": null, "check_date": null, "access": "yes", "operator:type": null, "internet_access": null, "designation": null, "name:en": null, "phone": null, "operator": null, "addr:postcode": null, "addr:housenumber": null, "addr:street": null, "addr:city": null, "wikipedia": null, "wikidata": null, "website": null, "opening_hours": null, "name:ta": null, "name:fr": null, "name": "Komari Public Library" }, "geometry": { "type": "Point", "coordinates": [ 81.8631938, 6.977659 ] } },
{ "type": "Feature", "properties": { "full_id": "n10743542262", "osm_id": "10743542262", "osm_type": "node", "amenity": "library", "description": null, "wheelchair": null, "entrance": null, "check_date": null, "access": null, "operator:type": null, "internet_access": null, "designation": null, "name:en": null, "phone": null, "operator": null, "addr:postcode": null, "addr:housenumber": null, "addr:street": null, "addr:city": null, "wikipedia": null, "wikidata": null, "website": null, "opening_hours": null, "name:ta": "இணுவில் பொதுசன நூலகம்", "name:fr": null, "name": "Inuvil Public Library" }, "geometry": { "type": "Point", "coordinates": [ 80.0179298, 9.7173187 ] } },
{ "type": "Feature", "properties": { "full_id": "n11140120820", "osm_id": "11140120820", "osm_type": "node", "amenity": "library", "description": null, "wheelchair": null, "entrance": null, "check_date": null, "access": null, "operator:type": null, "internet_access": null, "designation": null, "name:en": null, "phone": null, "operator": null, "addr:postcode": "32360", "addr:housenumber": null, "addr:street": "Light house street", "addr:city": "Oluvil", "wikipedia": null, "wikidata": null, "website": null, "opening_hours": null, "name:ta": null, "name:fr": null, "name": "OLUVIL PUBLIC LIBRARY" }, "geometry": { "type": "Point", "coordinates": [ 81.8590272, 7.2905436 ] } },
{ "type": "Feature", "properties": { "full_id": "n11294741814", "osm_id": "11294741814", "osm_type": "node", "amenity": "library", "description": null, "wheelchair": null, "entrance": null, "check_date": null, "access": null, "operator:type": null, "internet_access": null, "designation": null, "name:en": null, "phone": null, "operator": null, "addr:postcode": null, "addr:housenumber": null, "addr:street": null, "addr:city": null, "wikipedia": null, "wikidata": null, "website": null, "opening_hours": null, "name:ta": null, "name:fr": null, "name": "public library nintavur" }, "geometry": { "type": "Point", "coordinates": [ 81.8463811, 7.35368 ] } },
{ "type": "Feature", "properties": { "full_id": "n11399629125", "osm_id": "11399629125", "osm_type": "node", "amenity": "library", "description": null, "wheelchair": null, "entrance": null, "check_date": null, "access": null, "operator:type": null, "internet_access": null, "designation": null, "name:en": null, "phone": null, "operator": null, "addr:postcode": null, "addr:housenumber": null, "addr:street": null, "addr:city": null, "wikipedia": null, "wikidata": null, "website": null, "opening_hours": null, "name:ta": null, "name:fr": null, "name": "public library" }, "geometry": { "type": "Point", "coordinates": [ 81.8359923, 7.3884029 ] } },
{ "type": "Feature", "properties": { "full_id": "n11618398405", "osm_id": "11618398405", "osm_type": "node", "amenity": null, "description": null, "wheelchair": "yes", "entrance": "service", "check_date": null, "access": "yes", "operator:type": null, "internet_access": null, "designation": null, "name:en": null, "phone": null, "operator": null, "addr:postcode": null, "addr:housenumber": null, "addr:street": null, "addr:city": null, "wikipedia": null, "wikidata": null, "website": null, "opening_hours": null, "name:ta": null, "name:fr": null, "name": null }, "geometry": { "type": "Point", "coordinates": [ 81.8564709, 7.3011069 ] } },
{ "type": "Feature", "properties": { "full_id": "n11766273588", "osm_id": "11766273588", "osm_type": "node", "amenity": "library", "description": null, "wheelchair": null, "entrance": null, "check_date": null, "access": null, "operator:type": null, "internet_access": null, "designation": null, "name:en": null, "phone": null, "operator": null, "addr:postcode": null, "addr:housenumber": null, "addr:street": null, "addr:city": null, "wikipedia": null, "wikidata": null, "website": null, "opening_hours": null, "name:ta": null, "name:fr": null, "name": "Alayadivembu public library" }, "geometry": { "type": "Point", "coordinates": [ 81.8452182, 7.2119087 ] } },
{ "type": "Feature", "properties": { "full_id": "n11942799807", "osm_id": "11942799807", "osm_type": "node", "amenity": "library", "description": null, "wheelchair": null, "entrance": null, "check_date": null, "access": null, "operator:type": null, "internet_access": null, "designation": null, "name:en": null, "phone": null, "operator": null, "addr:postcode": null, "addr:housenumber": null, "addr:street": null, "addr:city": null, "wikipedia": null, "wikidata": null, "website": null, "opening_hours": null, "name:ta": null, "name:fr": null, "name": "Public Library" }, "geometry": { "type": "Point", "coordinates": [ 80.4528433, 7.2504056 ] } },
{ "type": "Feature", "properties": { "full_id": "n11950003635", "osm_id": "11950003635", "osm_type": "node", "amenity": "library", "description": null, "wheelchair": null, "entrance": null, "check_date": null, "access": null, "operator:type": null, "internet_access": null, "designation": null, "name:en": null, "phone": null, "operator": null, "addr:postcode": null, "addr:housenumber": null, "addr:street": null, "addr:city": null, "wikipedia": null, "wikidata": null, "website": null, "opening_hours": null, "name:ta": null, "name:fr": null, "name": "noolaham foundation eastern unit" }, "geometry": { "type": "Point", "coordinates": [ 81.7010897, 7.7208233 ] } },
{ "type": "Feature", "properties": { "full_id": "n12039387851", "osm_id": "12039387851", "osm_type": "node", "amenity": "library", "description": null, "wheelchair": null, "entrance": null, "check_date": null, "access": null, "operator:type": null, "internet_access": null, "designation": null, "name:en": null, "phone": null, "operator": null, "addr:postcode": null, "addr:housenumber": null, "addr:street": null, "addr:city": null, "wikipedia": null, "wikidata": null, "website": null, "opening_hours": null, "name:ta": null, "name:fr": null, "name": "University Library" }, "geometry": { "type": "Point", "coordinates": [ 81.2128445, 8.6530822 ] } },
{ "type": "Feature", "properties": { "full_id": "n12116412579", "osm_id": "12116412579", "osm_type": "node", "amenity": "library", "description": null, "wheelchair": null, "entrance": null, "check_date": null, "access": null, "operator:type": null, "internet_access": null, "designation": null, "name:en": null, "phone": null, "operator": null, "addr:postcode": "32500", "addr:housenumber": null, "addr:street": "Potuvil - Panama Road", "addr:city": "Ulla", "wikipedia": null, "wikidata": null, "website": null, "opening_hours": null, "name:ta": null, "name:fr": null, "name": "Ulla Library" }, "geometry": { "type": "Point", "coordinates": [ 81.8249722, 6.8331718 ] } },
{ "type": "Feature", "properties": { "full_id": "n12118350702", "osm_id": "12118350702", "osm_type": "node", "amenity": "library", "description": null, "wheelchair": null, "entrance": null, "check_date": null, "access": null, "operator:type": null, "internet_access": null, "designation": null, "name:en": null, "phone": null, "operator": null, "addr:postcode": null, "addr:housenumber": null, "addr:street": null, "addr:city": null, "wikipedia": null, "wikidata": null, "website": null, "opening_hours": null, "name:ta": null, "name:fr": null, "name": null }, "geometry": { "type": "Point", "coordinates": [ 80.7167452, 8.2898595 ] } },
{ "type": "Feature", "properties": { "full_id": "n12343239227", "osm_id": "12343239227", "osm_type": "node", "amenity": "library", "description": null, "wheelchair": null, "entrance": null, "check_date": null, "access": null, "operator:type": null, "internet_access": null, "designation": null, "name:en": null, "phone": null, "operator": null, "addr:postcode": null, "addr:housenumber": null, "addr:street": null, "addr:city": null, "wikipedia": null, "wikidata": null, "website": null, "opening_hours": null, "name:ta": null, "name:fr": null, "name": null }, "geometry": { "type": "Point", "coordinates": [ 79.9044855, 7.1270335 ] } },
{ "type": "Feature", "properties": { "full_id": "n12581605583", "osm_id": "12581605583", "osm_type": "node", "amenity": "library", "description": "Administrate under Kaduwela Municipal Council", "wheelchair": null, "entrance": null, "check_date": null, "access": null, "operator:type": null, "internet_access": null, "designation": null, "name:en": null, "phone": null, "operator": null, "addr:postcode": null, "addr:housenumber": null, "addr:street": "Kottawa Road, Athurugiriya", "addr:city": null, "wikipedia": null, "wikidata": null, "website": null, "opening_hours": "Mo, Tu, Th-Su 08:00-16:00", "name:ta": null, "name:fr": null, "name": "Athurugiriya Public Library" }, "geometry": { "type": "Point", "coordinates": [ 79.9992492, 6.8665514 ] } },
{ "type": "Feature", "properties": { "full_id": "n12600751301", "osm_id": "12600751301", "osm_type": "node", "amenity": "library", "description": null, "wheelchair": null, "entrance": null, "check_date": null, "access": null, "operator:type": null, "internet_access": null, "designation": null, "name:en": null, "phone": null, "operator": null, "addr:postcode": null, "addr:housenumber": null, "addr:street": null, "addr:city": null, "wikipedia": null, "wikidata": null, "website": null, "opening_hours": null, "name:ta": null, "name:fr": null, "name": null }, "geometry": { "type": "Point", "coordinates": [ 80.2154547, 6.0301111 ] } },
{ "type": "Feature", "properties": { "full_id": "n12832948092", "osm_id": "12832948092", "osm_type": "node", "amenity": "library", "description": null, "wheelchair": null, "entrance": null, "check_date": null, "access": null, "operator:type": null, "internet_access": null, "designation": null, "name:en": null, "phone": null, "operator": null, "addr:postcode": null, "addr:housenumber": null, "addr:street": null, "addr:city": null, "wikipedia": null, "wikidata": null, "website": null, "opening_hours": null, "name:ta": null, "name:fr": null, "name": null }, "geometry": { "type": "Point", "coordinates": [ 80.6578127, 7.3244523 ] } },
{ "type": "Feature", "properties": { "full_id": "n12880836307", "osm_id": "12880836307", "osm_type": "node", "amenity": "library", "description": null, "wheelchair": null, "entrance": null, "check_date": null, "access": null, "operator:type": null, "internet_access": null, "designation": null, "name:en": null, "phone": null, "operator": null, "addr:postcode": null, "addr:housenumber": null, "addr:street": null, "addr:city": null, "wikipedia": null, "wikidata": null, "website": null, "opening_hours": null, "name:ta": null, "name:fr": null, "name": null }, "geometry": { "type": "Point", "coordinates": [ 80.7844102, 7.3136471 ] } },
{ "type": "Feature", "properties": { "full_id": "n12880866334", "osm_id": "12880866334", "osm_type": "node", "amenity": "library", "description": null, "wheelchair": null, "entrance": null, "check_date": null, "access": null, "operator:type": null, "internet_access": null, "designation": null, "name:en": null, "phone": null, "operator": null, "addr:postcode": null, "addr:housenumber": null, "addr:street": null, "addr:city": null, "wikipedia": null, "wikidata": null, "website": null, "opening_hours": null, "name:ta": null, "name:fr": null, "name": "Mahajana Library" }, "geometry": { "type": "Point", "coordinates": [ 81.6725452, 7.2915544 ] } },
{ "type": "Feature", "properties": { "full_id": "n12880949504", "osm_id": "12880949504", "osm_type": "node", "amenity": "library", "description": null, "wheelchair": null, "entrance": null, "check_date": null, "access": null, "operator:type": null, "internet_access": "no", "designation": null, "name:en": null, "phone": null, "operator": null, "addr:postcode": null, "addr:housenumber": null, "addr:street": null, "addr:city": null, "wikipedia": null, "wikidata": null, "website": null, "opening_hours": null, "name:ta": null, "name:fr": null, "name": "owilikanda library" }, "geometry": { "type": "Point", "coordinates": [ 80.5866476, 7.4573816 ] } }
]
}
